CCSDS_OEM_VERS = 2.0
CREATION_DATE = 1996-11-04T17:22:31
ORIGINATOR = NASA/JPL

META_START
OBJECT_NAME = MARS GLOBAL SURVEYOR
OBJECT_ID = 1996-062A
CENTER_NAME = MARS BARYCENTER
REF_FRAME = EME2000
TIME_SYSTEM = UTC
START_TIME = 1996-12-18T12:00:00.331
USEABLE_START_TIME = 1996-12-18T12:10:00.331
USEABLE_STOP_TIME = 1996-12-28T21:23:00.331
STOP_TIME = 1996-12-28T21:28:00.331
INTERPOLATION = HERMITE
INTERPOLATION_DEGREE = 7
META_STOP

COMMENT This block begins after the first META_STOP keyword
1996-12-18T12:00:00.331  2789.6 -280.0 -1746.8  4.73 -2.50 -1.04
1996-12-18T12:01:00.331  2783.4 -308.1 -1877.1  5.19 -2.42 -2.00
1996-12-18T12:02:00.331  2776.0 -336.9 -2008.7  5.64 -2.34 -1.95
